KPHL 170154Z 10004KT 9SM -RA SCT009 SCT040 OVC065 11/09 A2980 RMK AO2 SLP089
  P0006 T01110094<BR>
KPHL 170144Z 06005KT 9SM -RA FEW009 SCT040 OVC065 11/09 A2979 RMK AO2 P0006<BR>
KPHL 170120Z 11003KT 6SM RA SCT040 OVC065 11/09 A2980 RMK AO2 P0003<BR>
KPHL 170054Z 11007KT 9SM -RA SCT040 OVC070 12/09 A2978 RMK AO2 RAE02B20 SLP085
  P0002 T01170094<BR>
KPHL 170020Z 10008KT 9SM -RA FEW025 BKN035 OVC070 12/09 A2979 RMK AO2 RAE02B20
  P0000<BR>
KPHL 170008Z 06007KT 10SM FEW025 BKN035 OVC070 12/09 A2978 RMK AO2 RAE02 P0000<BR>
KPHL 162354Z 07007KT 9SM -RA FEW008 SCT021 OVC031CB 12/09 A2978 RMK AO2
  RAE2257B18 SLP084 CB E MOV E P0004 60005 T01220094 10239 20122 53023<BR>
KPHL 162349Z 05009KT 8SM -RA FEW008 SCT021 OVC031CB 13/09 A2978 RMK AO2
  RAE2257B18 CB OHD MOV E P0003<BR>
KPHL 162342Z 08013G19KT 6SM +RA SCT021 BKN035CB OVC075 13/10 A2977 RMK AO2
  RAE2257B18 CB OHD MOV E P0002<BR>
KPHL 162321Z 07010G17KT 8SM -RA SCT035 BKN055 OVC090 15/10 A2978 RMK AO2
  RAE2257B18 P0000<BR>
KPHL 162257Z 07011G18KT 10SM SCT035 BKN060 BKN080 OVC250 17/12 A2977 RMK AO2
  RAE57 PRESRR P0000<BR>
KPHL 162254Z 07013KT 9SM -RA SCT035 BKN060 BKN080 OVC250 17/12 A2976 RMK AO2
  RAE05B29 PRESRR SLP078 P0001 T01670122<BR>
KPHL 162230Z 08012KT 9SM -RA BKN035CB BKN080 OVC250 18/12 A2974 RMK AO2 RAE05B29
  CB S-SW MOV E P0000<BR>
KPHL 162207Z 07011KT 10SM BKN035 BKN090 BKN250 20/13 A2973 RMK AO2 RAE05 P0000<BR>
KPHL 162154Z 11007KT 9SM -RA SCT043CB BKN090 BKN250 21/14 A2972 RMK AO2 RAB34
  SLP065 CB SE MOV E P0000 T02060139<BR>
KPHL 162136Z 01009KT 7SM -RA SCT043 OVC090 22/12 A2975 RMK AO2 RAB34 PRESRR
  P0000<BR>
KPHL 162054Z 07008KT 10SM FEW047 BKN110 BKN250 23/12 A2971 RMK AO2 SLP062
  T02330122 56049<BR>
KPHL 161954Z 08006KT 10SM SCT120 BKN250 23/11 A2975 RMK AO2 SLP074 T02280111 $<BR>
KPHL 161854Z 09005KT 10SM SCT110 SCT250 22/11 A2981 RMK AO2 SLP094 T02220106 $<BR>
KPHL 161754Z 12004KT 10SM FEW065 SCT110 20/09 A2986 RMK AO2 SLP111 T02000094
  10206 20106 57035<BR>
KPHL 161654Z 10005KT 10SM FEW110 19/09 A2990 RMK AO2 SLP123 T01890094<BR>
KPHL 161554Z 11007KT 10SM FEW120 17/10 A2993 RMK AO2 SLP134 T01720100<BR>
KPHL 161454Z 07005KT 9SM FEW120 SCT200 16/09 A2996 RMK AO2 SLP146 T01560094
  56025<BR>
KPHL 161354Z 06003KT 8SM FEW020 SCT065 BKN120 13/09 A2999 RMK AO2 SLP156
  T01330089<BR>
KPHL 161254Z 08003KT 8SM FEW014 SCT080 BKN120 12/08 A3000 RMK AO2 SLP159
  T01170083<BR>
KPHL 161210Z 06008KT 8SM SCT014 BKN080 BKN095 BKN250 11/08 A3002 RMK AO2 $<BR>
KPHL 161154Z 03010KT 10SM FEW014 SCT070 OVC095 11/08 A3004 RMK AO2 RAB1059E42
  SLP171 P0001 60001 70001 T01060083 10139 20106 51003 $<BR>
KPHL 161143Z 03011KT 10SM FEW014 SCT070 OVC095 11/08 A3004 RMK AO2 RAB1059E42
  P0001 $<BR>
KPHL 161120Z 04004KT 8SM -RA FEW014 SCT055TCU OVC100 11/08 A3002 RMK AO2 RAB1059
  TCU E-S-SW P0001 $<BR>
KPHL 161102Z 02007KT 8SM -RA FEW045TCU BKN100 OVC180 11/07 A3004 RMK AO2 RAB1059
  TCU NW P0000 $<BR>
KPHL 161054Z 02010G20KT 8SM FEW045 BKN100 OVC180 11/07 A3004 RMK AO2 SLP171 VCSH
  S T01110072 $<BR>
KPHL 160954Z 02014G19KT 8SM SCT075 BKN120 OVC180 11/08 A3005 RMK AO2 RAB23E35
  PRESRR SLP177 P0000 T01110078 $<BR>
KPHL 160932Z 03009KT 8SM -RA FEW075 BKN100 OVC150 12/08 A3002 RMK AO2 RAB23
  P0000 $<BR>
KPHL 160854Z 06007KT 10SM SCT110 BKN150 OVC180 12/07 A3003 RMK AO2 SLP168
  T01220072 58021 $<BR>
KPHL 160754Z 05005KT 10SM BKN120 OVC180 13/08 A3006 RMK AO2 SLP179 T01280078 $<BR>
KPHL 160654Z 09005KT 10SM SCT120 BKN180 OVC250 13/07 A3008 RMK AO2 SLP185
  T01330072 $<BR>
KPHL 160554Z 12005KT 10SM SCT095 BKN150 OVC220 13/07 A3009 RMK AO2 SLP189
  T01330072 10206 20133 58018 $<BR>
KPHL 160454Z 14004KT 10SM SCT100 BKN150 OVC250 15/07 A3011 RMK AO2 SLP196
  T01500072 402330089 $<BR>
KPHL 160354Z 18005KT 10SM FEW090 SCT120 BKN250 16/07 A3013 RMK AO2 SLP203
  T01610067 $<BR>
KPHL 160254Z 19004KT 10SM BKN110 BKN250 17/07 A3014 RMK AO2 SLP207 T01720067
  58001 $<BR>
KPHL 160154Z 20004KT 10SM BKN110 BKN250 18/07 A3015 RMK AO2 SLP209 T01780067 $<BR>
KPHL 160054Z 20005KT 10SM SCT100 SCT250 19/06 A3015 RMK AO2 SLP209 T01890061 $<BR>
KPHL 152354Z 22005KT 10SM SCT100 SCT250 21/05 A3015 RMK AO2 SLP208 T02060050
  10233 20206 56011 $<BR>
KPHL 152254Z 25004KT 10SM SCT100 SCT250 22/04 A3015 RMK AO2 SLP210 T02220039 $<BR>
KPHL 152154Z 26004KT 10SM FEW100 SCT250 23/04 A3017 RMK AO2 SLP214 T02280039 $<BR>
KPHL 152054Z 26006KT 10SM FEW100 SCT250 23/02 A3018 RMK AO2 SLP219 T02280022
  56023 $<BR>
KPHL 151954Z 00000KT 10SM FEW100 22/02 A3019 RMK AO2 SLP222 T02220017 $<BR>
KPHL 151854Z 26007KT 10SM FEW100 22/00 A3022 RMK AO2 SLP232 T02220000 $<BR>
KPHL 151754Z 00000KT 10SM FEW100 21/M01 A3025 RMK AO2 SLP242 T02111006 10211
  20106 56027 $<BR>
KPHL 151654Z 25007KT 10SM FEW090 SCT120 20/03 A3027 RMK AO2 SLP250 T02000028 $<BR>
KPHL 151554Z 20008KT 10SM FEW090 SCT120 18/03 A3030 RMK AO2 SLP259 T01830033 $<BR>
KPHL 151454Z VRB04KT 10SM FEW110 17/03 A3033 RMK AO2 SLP268 T01670033 57015 $<BR>
KPHL 151354Z 22008KT 10SM SCT110 14/04 A3034 RMK AO2 SLP275 T01390039<BR>
KPHL 151254Z 26008KT 10SM FEW095 SCT120 12/04 A3035 RMK AO2 SLP277 T01220044<BR>
KPHL 151154Z 26006KT 10SM BKN095 11/05 A3037 RMK AO2 SLP283 T01060050 10111
  20089 53002<BR>
KPHL 151054Z 23005KT 10SM FEW100 SCT250 09/04 A3036 RMK AO2 SLP280 T00890044<BR>
KPHL 150954Z 22006KT 10SM SCT180 09/04 A3035 RMK AO2 SLP277 T00940039<BR>
KPHL 150854Z COR 26008KT 10SM FEW180 SCT250 10/03 A3036 RMK AO2 SLP281 T01000028
  56010<BR>
KPHL 150754Z 26008KT 10SM BKN250 10/02 A3037 RMK AO2 SLP283 T01000022<BR>
KPHL 150654Z 25006KT 10SM BKN220 09/05 A3038 RMK AO2 SLP286 T00940050<BR>
KPHL 150554Z 25008KT 10SM FEW250 10/05 A3039 RMK AO2 SLP291 T01000050 10156
  20100 58004<BR>
KPHL 150454Z 25009KT 10SM FEW250 11/06 A3041 RMK AO2 SLP297 T01110056 401830044<BR>
KPHL 150354Z 25008KT 10SM CLR 11/05 A3041 RMK AO2 SLP297 T01110050<BR>
KPHL 150254Z 24009KT 10SM FEW250 12/03 A3040 RMK AO2 SLP295 T01220033 58009<BR>
KPHL 150154Z 23008KT 10SM FEW250 13/03 A3042 RMK AO2 SLP301 T01280028<BR>
KPHL 150054Z 23009KT 10SM FEW250 14/02 A3043 RMK AO2 SLP304 T01390017<BR>
KPHL 142354Z 23010KT 10SM FEW250 16/01 A3043 RMK AO2 SLP304 T01560006 10183
  20156 56009<BR>
KPHL 142254Z 23013KT 10SM FEW250 17/00 A3044 RMK AO2 SLP307 T01670000<BR>
KPHL 142154Z 23011KT 10SM FEW070 18/M01 A3045 RMK AO2 SLP309 T01781006<BR>
KPHL 142054Z 26009KT 10SM FEW070 18/M01 A3046 RMK AO2 SLP313 T01781011 56024<BR>
KPHL 141954Z 16006KT 10SM FEW070 18/M02 A3048 RMK AO2 SLP319 T01781022<BR>
KPHL 141854Z VRB04KT 10SM FEW070 17/M02 A3050 RMK AO2 SLP328 T01721022<BR>
KPHL 141754Z VRB04KT 10SM FEW070 17/M02 A3053 RMK AO2 SLP336 T01671017 10172
  20078 56022<BR>
KPHL 141654Z 16005KT 10SM FEW060 17/01 A3055 RMK AO2 SLP343 T01670006<BR>
KPHL 141554Z 14004KT 10SM FEW050 15/02 A3057 RMK AO2 SLP351 T01500017<BR>
KPHL 141454Z 16003KT 10SM FEW250 14/03 A3059 RMK AO2 SLP358 T01440028 50005<BR>
KPHL 141354Z 00000KT 10SM FEW250 12/03 A3060 RMK AO2 SLP360 T01220028<BR>
KPHL 141323Z 00000KT 10SM FEW250 11/05 A3059 RMK AO2<BR>
KPHL 141254Z 00000KT 7SM FEW250 10/05 A3059 RMK AO2 SLP359 T01000050<BR>
KPHL 141243Z 00000KT 7SM FEW250 09/06 A3059 RMK AO2<BR>
KPHL 141154Z 00000KT 5SM BR FEW250 08/05 A3058 RMK AO2 SLP353 70006 T00780050
  10078 20044 53013<BR>
KPHL 141054Z 36004KT 5SM BR SCT180 SCT250 06/04 A3056 RMK AO2 SLP347 T00610039<BR>
KPHL 141032Z 02005KT 5SM BR SCT180 SCT250 06/04 A3056 RMK AO2<BR>
KPHL 140954Z 00000KT 7SM FEW035 06/04 A3055 RMK AO2 SLP344 T00560039<BR>
KPHL 140932Z 35003KT 7SM FEW035 04/03 A3055 RMK AO2<BR>
KPHL 140854Z 34005KT 6SM BR CLR 04/03 A3054 RMK AO2 SLP341 T00440033 55000<BR>
KPHL 140832Z 32004KT 6SM BR CLR 06/04 A3054 RMK AO2<BR>
KPHL 140754Z 34003KT 8SM CLR 05/04 A3053 RMK AO2 SLP338 T00500039<BR>
KPHL 140654Z 00000KT 8SM FEW025 06/04 A3054 RMK AO2 SLP340 T00610044<BR>
KPHL 140554Z 32005KT 8SM FEW025 07/04 A3054 RMK AO2 SLP341 T00670044 10094 20061
  50001<BR>
KPHL 140528Z 33004KT 8SM FEW025 07/05 A3054 RMK AO2<BR>
KPHL 140454Z COR 34003KT 10SM FEW025 07/05 A3055 RMK AO2 SLP344 T00720050
  401280072<BR>
KPHL 140354Z 25003KT 10SM FEW014 SCT028 08/05 A3054 RMK AO2 SLP341 T00780050<BR>
KPHL 140254Z 24003KT 10SM FEW013 SCT028 BKN055 08/06 A3054 RMK AO2 SLP340
  T00780056 51009<BR>
KPHL 140154Z 00000KT 10SM FEW013 BKN030 BKN085 08/06 A3054 RMK AO2 SLP340
  T00830061<BR>
KPHL 140054Z 00000KT 10SM FEW012 BKN036 OVC060 09/06 A3053 RMK AO2 SLP337
  T00890056<BR>
KPHL 132354Z 00000KT 10SM FEW012 SCT028 OVC035 09/06 A3051 RMK AO2 SLP331 60002
  T00940061 10094 20089 51004<BR>
KPHL 132254Z 08003KT 10SM FEW012 SCT025 OVC035 09/06 A3051 RMK AO2 SLP331
  T00940056<BR>
KPHL 132154Z 09005KT 10SM FEW013 SCT025 OVC040 09/06 A3051 RMK AO2 SLP330
  T00940056<BR>
KPHL 132054Z 10005KT 10SM FEW013 SCT026 OVC035 09/06 A3050 RMK AO2 RAE26 SLP327
  P0000 60002 T00890056 56005<BR>
KPHL 131954Z 07005KT 10SM -RA SCT015 OVC030 09/06 A3050 RMK AO2 SLP328 P0001
  T00890061<BR>
KPHL 131939Z 06005KT 10SM -RA SCT015 OVC030 09/06 A3051 RMK AO2 P0001<BR>
KPHL 131911Z 07004KT 7SM -RA SCT015 OVC034 09/06 A3051 RMK AO2 P0001<BR>
KPHL 131904Z 06005KT 6SM -RA SCT015 OVC034 09/06 A3050 RMK AO2 P0001<BR>
KPHL 131854Z 05009KT 8SM -RA SCT017 SCT029 OVC034 09/06 A3051 RMK AO2 SLP329
  P0001 T00890061<BR>
KPHL 131846Z 05008KT 8SM -RA SCT017 OVC036 09/06 A3051 RMK AO2 P0001<BR>
KPHL 131834Z 06007KT 10SM -RA SCT017 SCT028 OVC036 09/06 A3051 RMK AO2 P0001<BR>
KPHL 131754Z 06006KT 7SM -RA FEW015 SCT025 OVC038 09/07 A3052 RMK AO2 SLP332
  P0001 60004 T00940067 10122 20089 55004<BR>
KPHL 131735Z 06006KT 7SM -RA FEW015 SCT025 OVC038 09/06 A3052 RMK AO2 P0000<BR>
KPHL 131703Z 05006KT 10SM -RA FEW025 BKN034 OVC045 09/06 A3051 RMK AO2 P0000<BR>
KPHL 131654Z 05008KT 7SM -RA SCT025 OVC034 09/06 A3051 RMK AO2 SLP332 P0003
  T00890061<BR>
KPHL 131646Z 04009KT 7SM -RA SCT025 OVC034 09/06 A3051 RMK AO2 P0003<BR>
KPHL 131637Z 03010KT 5SM -RA BKN025 OVC034 09/05 A3052 RMK AO2 P0003<BR>
KPHL 131627Z 01008KT 6SM -RA SCT025 OVC034 09/06 A3052 RMK AO2 P0002<BR>
KPHL 131607Z 35006KT 7SM -RA FEW028 OVC036 09/05 A3053 RMK AO2 P0001 $<BR>
KPHL 131557Z 35009KT 5SM RA SCT031 BKN036 OVC047 09/05 A3053 RMK AO2 P0000 PNO<BR>
KPHL 131554Z 35009KT 7SM -RA SCT031 BKN038 OVC047 09/05 A3053 RMK AO2 WSHFT 1533
  SLP337 P0000 T00940050<BR>
KPHL 131549Z 36011KT 7SM -RA BKN035 OVC047 10/05 A3053 RMK AO2 WSHFT 1533 P0000<BR>
KPHL 131542Z 36013KT 8SM -RA FEW030 BKN038 OVC047 10/04 A3052 RMK AO2 P0000<BR>
KPHL 131454Z 04007KT 10SM -RA FEW024 BKN047 OVC055 12/01 A3049 RMK AO2 SLP325
  P0000 60000 T01170006 53020<BR>
KPHL 131354Z 07005KT 10SM -RA FEW048 SCT060 OVC130 12/M01 A3047 RMK AO2 RAB51
  SLP317 P0000 T01221006<BR>
KPHL 131254Z 05008KT 10SM FEW040 SCT070 OVC130 12/01 A3045 RMK AO2 SLP310 VIRGA
  OHD T01170006<BR>
KPHL 131154Z 07007KT 10SM BKN080 OVC130 12/01 A3043 RMK AO2 SLP305 VIRGA OHD
  T01170006 10122 20106 53010<BR>
KPHL 131054Z 06006KT 10SM FEW025 BKN140 OVC180 11/M01 A3041 RMK AO2 SLP298
  T01111006<BR>
KPHL 130954Z 05006KT 10SM FEW110 BKN150 OVC200 11/M01 A3041 RMK AO2 SLP297
  T01111011<BR>
KPHL 130854Z 05006KT 10SM SCT150 BKN180 OVC200 12/M02 A3040 RMK AO2 SLP294
  T01171017 53004<BR>
KPHL 130754Z 04008KT 10SM SCT180 SCT250 11/M02 A3038 RMK AO2 SLP287 T01111022<BR>
KPHL 130654Z 04006KT 10SM BKN180 OVC250 11/M04 A3038 RMK AO2 SLP288 T01111039<BR>
KPHL 130554Z 05005KT 10SM BKN150 OVC250 12/M03 A3039 RMK AO2 SLP290 T01171028
  10183 20117 51010<BR>
KPHL 130454Z 04006KT 10SM SCT150 BKN250 13/M01 A3039 RMK AO2 SLP290 T01281011
  402000111<BR>
KPHL 130354Z 06006KT 10SM FEW150 SCT250 13/M01 A3038 RMK AO2 SLP287 T01281011<BR>
KPHL 130254Z 07009KT 10SM FEW150 BKN250 14/M02 A3036 RMK AO2 SLP280 T01441022
  51013<BR>
KPHL 130154Z 00000KT 10SM FEW150 OVC250 15/M03 A3035 RMK AO2 SLP276 T01501033<BR>
KPHL 130054Z 32005KT 10SM FEW150 OVC250 17/M06 A3034 RMK AO2 SLP273 T01721061<BR>
KPHL 122354Z 30005KT 10SM FEW150 OVC250 18/M07 A3032 RMK AO2 SLP268 T01831072
  10200 20178 53008<BR>
KPHL 122254Z 34009KT 10SM BKN250 18/M06 A3030 RMK AO2 SLP261 T01831061<BR>
KPHL 122154Z 31008KT 10SM BKN250 19/M04 A3029 RMK AO2 SLP258 T01891044<BR>
KPHL 122054Z 30008KT 10SM BKN250 19/M03 A3030 RMK AO2 SLP260 T01941028 56009<BR>
KPHL 121954Z 35009KT 10SM BKN250 19/M02 A3030 RMK AO2 SLP261 T01941017<BR>
KPHL 121854Z 31012G19KT 10SM SCT250 19/M04 A3031 RMK AO2 SLP262 T01941039<BR>
KPHL 121754Z 30014G21KT 10SM BKN250 19/M02 A3033 RMK AO2 SLP268 60000 T01941022
  10194 20133 58014<BR>
KPHL 121654Z 31008G15KT 10SM BKN250 18/M03 A3035 RMK AO2 SLP275 T01831033<BR>
KPHL 121554Z 36006KT 10SM BKN250 18/M02 A3037 RMK AO2 SLP282 T01831017<BR>
KPHL 121454Z VRB05KT 10SM BKN250 18/M02 A3037 RMK AO2 SLP282 T01781022 51010<BR>
KPHL 121354Z 02005KT 10SM SCT250 17/M03 A3035 RMK AO2 SLP278 T01721028<BR>
KPHL 121254Z 00000KT 10SM SCT250 16/M01 A3035 RMK AO2 SLP276 T01561011<BR>
KPHL 121154Z 00000KT 10SM FEW250 13/02 A3034 RMK AO2 SLP272 T01280017 10161
  20111 53015<BR>
KPHL 121054Z 00000KT 10SM FEW110 12/M01 A3031 RMK AO2 SLP264 T01221006<BR>
KPHL 120954Z 03003KT 10SM FEW110 12/M02 A3030 RMK AO2 SLP261 T01171017<BR>
KPHL 120854Z 05005KT 10SM BKN095 12/M02 A3029 RMK AO2 SLP257 T01171022 53012<BR>
KPHL 120754Z 04010KT 10SM SCT090 BKN110 14/M03 A3028 RMK AO2 SLP254 T01391028<BR>
KPHL 120654Z 36010KT 10SM FEW090 BKN110 OVC220 15/M02 A3026 RMK AO2 SLP247
  T01501017<BR>
KPHL 120554Z 36011KT 10SM SCT090 BKN120 OVC180 16/05 A3026 RMK AO2 SLP245 60000
  T01610050 10211 20144 53015<BR>
KPHL 120454Z 03003KT 10SM BKN085 OVC140 16/07 A3024 RMK AO2 SLP239 T01610067
  402440083<BR>
KPHL 120354Z 04004KT 10SM OVC080 17/07 A3023 RMK AO2 RAB33E44 SLP235 P0000
  T01670072<BR>
KPHL 120254Z 04004KT 10SM SCT090 BKN120 OVC220 18/06 A3021 RMK AO2 SLP230
  T01830061 51021<BR>
KPHL 120154Z 02011KT 10SM BKN090 19/06 A3020 RMK AO2 SLP226 T01940061<BR>
KPHL 120054Z 21005KT 10SM BKN110 20/06 A3017 RMK AO2 SLP217 T02000061<BR>
KPHL 112354Z 22007KT 10SM SCT065 SCT200 21/06 A3015 RMK AO2 SLP209 T02110056
  10244 20206 53002<BR>
KPHL 112254Z 23007KT 10SM FEW050 SCT200 23/06 A3014 RMK AO2 SLP207 T02280056<BR>
KPHL 112154Z 27010KT 10SM FEW050 SCT200 24/04 A3014 RMK AO2 SLP207 T02390039<BR>
KPHL 112054Z 29011KT 10SM FEW050 SCT200 24/03 A3015 RMK AO2 SLP207 T02440028
  56018<BR>
KPHL 111954Z 26010G19KT 10SM SCT200 24/04 A3016 RMK AO2 SLP212 T02390039<BR>
KPHL 111854Z 28012G20KT 10SM FEW150 24/03 A3018 RMK AO2 SLP219 T02390033<BR>
KPHL 111754Z 25012KT 10SM FEW150 23/03 A3020 RMK AO2 SLP225 T02330028 10233
  20106 57022<BR>
KPHL 111654Z 24010KT 10SM CLR 22/02 A3022 RMK AO2 SLP232 T02220017<BR>
KPHL 111554Z 22010KT 10SM CLR 20/02 A3024 RMK AO2 SLP240 T02000022<BR>
KPHL 111454Z 23010KT 10SM CLR 18/03 A3026 RMK AO2 SLP247 T01780033 58006<BR>
KPHL 111354Z 23011KT 10SM CLR 15/06 A3028 RMK AO2 SLP251 T01500056<BR>
KPHL 111254Z 22010KT 10SM CLR 12/07 A3028 RMK AO2 SLP254 T01220067<BR>
KPHL 111154Z 23008KT 10SM CLR 11/06 A3028 RMK AO2 SLP254 T01060056 10106 20083
  53009<BR>
KPHL 111054Z 22008KT 10SM CLR 09/04 A3027 RMK AO2 SLP248 T00890044<BR>
KPHL 110954Z 24007KT 10SM CLR 09/04 A3026 RMK AO2 SLP246 T00890039<BR>
KPHL 110854Z 22004KT 10SM CLR 09/04 A3026 RMK AO2 SLP245 T00940039 57005<BR>
KPHL 110754Z 20004KT 10SM CLR 10/03 A3026 RMK AO2 SLP247 T01000028<BR>
KPHL 110654Z 23007KT 10SM CLR 10/02 A3027 RMK AO2 SLP248 T01000017<BR>
KPHL 110554Z 23008KT 10SM CLR 11/02 A3027 RMK AO2 SLP250 T01060022 10139 20100
  58003<BR>
KPHL 110354Z 23007KT 10SM CLR 11/01 A3028 RMK AO2 SLP254 T01110011<BR>
KPHL 110254Z 22005KT 10SM CLR 12/01 A3028 RMK AO2 SLP253 T01220006 51003<BR>
KPHL 110154Z 20006KT 10SM CLR 12/00 A3028 RMK AO2 SLP253 T01220000<BR>
KPHL 110054Z 20003KT 10SM CLR 13/01 A3028 RMK AO2 SLP252 T01280006<BR>
KPHL 102354Z 25007KT 10SM CLR 13/M02 A3027 RMK AO2 SLP249 T01331017 10161 20133
  53007<BR>
KPHL 102254Z 27009KT 10SM CLR 16/M03 A3026 RMK AO2 SLP245 T01561033<BR>
KPHL 102154Z 27009G21KT 10SM CLR 16/M04 A3026 RMK AO2 SLP245 T01611039<BR>
KPHL 102054Z 27011KT 10SM CLR 16/M04 A3025 RMK AO2 SLP242 T01561039 56012<BR>
KPHL 101954Z 29012G23KT 10SM CLR 16/M04 A3026 RMK AO2 SLP246 T01561039<BR>
KPHL 101854Z 28012G22KT 10SM CLR 14/M03 A3027 RMK AO2 SLP250 T01441033<BR>
KPHL 101754Z 29012G19KT 10SM CLR 14/M03 A3028 RMK AO2 SLP254 T01391028 10139
  20072 58001 $<BR>
KPHL 101654Z 28011G17KT 10SM FEW050 12/M03 A3028 RMK AO2 SLP254 T01221033 $<BR>
KPHL 101554Z 25012G15KT 10SM FEW050 11/M03 A3029 RMK AO2 SLP258 T01111033<BR>
KPHL 101454Z 30011G19KT 10SM FEW050 09/M04 A3029 RMK AO2 SLP256 T00941044 51026<BR>
KPHL 101354Z 31010KT 10SM FEW050 09/M04 A3027 RMK AO2 PK WND 31026/1310 SLP249
  T00891044<BR>
KPHL 101254Z 34017G21KT 10SM FEW050 08/M06 A3025 RMK AO2 PK WND 30028/1223
  SLP244 T00781056<BR>
KPHL 101154Z 32021G28KT 10SM BKN050 07/M05 A3021 RMK AO2 PK WND 33028/1154
  SLP230 T00721050 10072 20056 53036<BR>
KPHL 101054Z 32015G19KT 10SM BKN048 07/M04 A3017 RMK AO2 SLP215 T00721039<BR>
KPHL 100954Z 26008KT 10SM OVC050 06/M03 A3013 RMK AO2 SLP204 T00611028<BR>
KPHL 100854Z 26010KT 10SM OVC070 06/M04 A3011 RMK AO2 SLP194 T00611039 53014<BR>
KPHL 100754Z 27009KT 10SM BKN070 06/M04 A3009 RMK AO2 SLP188 T00611044<BR>
KPHL 100654Z 29015G20KT 10SM SCT070 07/M06 A3007 RMK AO2 SLP182 T00671056<BR>
KPHL 100554Z 26007KT 10SM BKN075 07/M05 A3007 RMK AO2 SLP181 T00671050 10106
  20067 51026<BR>
KPHL 100454Z 31021G30KT 10SM FEW055 BKN075 07/M07 A3004 RMK AO2 PK WND
  32030/0452 SLP173 T00721067 401610072<BR>
KPHL 100354Z 29013G20KT 10SM FEW055 SCT075 08/M03 A3001 RMK AO2 SLP162 T00781028<BR>
KPHL 100254Z 30019G27KT 10SM FEW055 SCT070 08/M03 A2999 RMK AO2 PK WND
  28033/0207 SLP154 T00831028 53033<BR>
KPHL 100154Z 28013G21KT 10SM OVC070 10/M03 A2995 RMK AO2 PK WND 29027/0141
  SLP142 T01001033<BR>
KPHL 100054Z 29012G17KT 10SM FEW070 10/M04 A2992 RMK AO2 SLP132 T01001044<BR>
KPHL 092354Z 28019G24KT 10SM FEW055 BKN060 11/M04 A2989 RMK AO2 PK WND
  29036/2304 SLP121 T01061044 10161 20106 51039<BR>
KPHL 092254Z 30017G28KT 10SM FEW055 BKN060 11/M02 A2986 RMK AO2 PK WND
  30032/2159 SLP110 T01111022<BR>
KPHL 092154Z 30017G27KT 10SM BKN060 12/M03 A2982 RMK AO2 PK WND 30029/2055
  SLP096 T01221028<BR>
KPHL 092054Z 30022G31KT 10SM BKN060 14/M02 A2977 RMK AO2 PK WND 30031/2054
  SLP082 T01391022 53012<BR>
KPHL 091954Z 31016G24KT 10SM FEW055 BKN060 BKN100 14/M01 A2975 RMK AO2 PK WND
  30027/1855 SLP073 T01441011<BR>
KPHL 091854Z 27018G23KT 10SM FEW055 BKN060 16/00 A2973 RMK AO2 SLP068 T01610000<BR>
KPHL 091754Z 31012G19KT 10SM SCT060 SCT110 14/M01 A2974 RMK AO2 SLP070 T01441006
  10150 20117 55016<BR>
KPHL 091654Z 31011KT 10SM BKN060 BKN110 14/01 A2973 RMK AO2 SLP068 T01390006<BR>
KPHL 091554Z 29011KT 10SM FEW070 BKN110 13/00 A2977 RMK AO2 SLP082 T01280000<BR>
KPHL 091454Z 30009KT 10SM BKN060 OVC110 12/01 A2978 RMK AO2 SLP085 T01220006
  51009<BR>
KPHL 091354Z 33013KT 10SM OVC046 12/03 A2977 RMK AO2 SLP081 T01170028<BR>
KPHL 091254Z 31012KT 10SM FEW025 OVC038 12/05 A2977 RMK AO2 SLP081 T01170050<BR>
KPHL 091154Z 32012KT 10SM FEW015 SCT024 OVC031 12/07 A2976 RMK AO2 RAB15E30
  SLP076 P0000 60021 70054 T01220072 10144 20122 51014 $<BR>
KPHL 091139Z 32013KT 10SM FEW012 SCT024 OVC031 12/08 A2975 RMK AO2 RAB15E30
  P0000 $<BR>
KPHL 091115Z 31012G18KT 10SM -RA FEW012 BKN024 OVC044 13/08 A2975 RMK AO2 RAB15
  P0000 $<BR>
KPHL 091102Z 29011KT 7SM FEW012 BKN024 OVC044 13/09 A2975 RMK AO2 $<BR>
KPHL 091054Z 28011KT 7SM FEW012 BKN040 OVC046 13/10 A2975 RMK AO2 RAE24 SLP074
  P0001 T01330100 $<BR>
KPHL 090954Z 25007KT 7SM -RA OVC085 13/12 A2973 RMK AO2 SLP065 P0003 T01280117 $<BR>
KPHL 090854Z 25005KT 9SM -RA BKN045 OVC090 13/11 A2972 RMK AO2 SLP062 P0001
  60017 T01330111 53002 $<BR>
KPHL 090754Z 31007KT 7SM -RA FEW022 BKN065 OVC090 13/11 A2969 RMK AO2 SLP053
  P0005 T01330111 $<BR>
KPHL 090657Z 27008KT 7SM -RA SCT045 OVC080 14/12 A2970 RMK AO2 P0000 $<BR>
KPHL 090654Z 27009KT 6SM -RA BR SCT035 OVC043 14/12 A2970 RMK AO2 SLP057 P0011
  T01440122 $<BR>
KPHL 090554Z 24012KT 6SM -RA BR BKN032 OVC044 14/13 A2971 RMK AO2 PRESRR SLP061
  P0007 60033 T01440133 10239 20144 53024 $<BR>
KPHL 090546Z 25009KT 6SM RA BR BKN032 BKN044 OVC085 14/13 A2970 RMK AO2 P0006 $<BR>
KPHL 090538Z 26008KT 4SM RA BR SCT032 BKN044 OVC085 15/13 A2969 RMK AO2 P0005 $<BR>
KPHL 090526Z 30008KT 5SM RA BR SCT029 BKN070 OVC085 15/13 A2968 RMK AO2 P0003 $<BR>
KPHL 090517Z 31007KT 6SM RA BR FEW019 BKN029 OVC070 16/12 A2967 RMK AO2 P0001 $<BR>
KPHL 090512Z 30010KT 8SM -RA FEW009 BKN029 OVC070 16/12 A2968 RMK AO2 P0000 $<BR>
KPHL 090503Z 31009KT 8SM -RA FEW011 SCT019 OVC029 16/13 A2967 RMK AO2 P0000 $<BR>
KPHL 090454Z COR 32012G19KT 6SM -RA BR FEW011 BKN018 OVC030 17/14 A2967 RMK AO2
  SLP046 P0018 T01670139 402890167 $<BR>
KPHL 090447Z 29015G19KT 5SM -RA BR FEW010 BKN017 OVC031 17/16 A2967 RMK AO2
  P0016 $<BR>
KPHL 090440Z 21005KT 2 1/2SM RA BR FEW010 BKN017 OVC044 17/16 A2968 RMK AO2
  P0014 $<BR>
KPHL 090429Z 19007KT 4SM RA BR SCT016 BKN022 OVC045 17/16 A2968 RMK AO2 P0011 $<BR>
KPHL 090423Z 20009KT 5SM RA BR FEW020 BKN031 OVC045 17/16 A2968 RMK AO2 P0009 $<BR>
KPHL 090421Z 21010KT 5SM -RA BR SCT020 BKN028 OVC045 17/16 A2968 RMK AO2 P0009 $<BR>
KPHL 090414Z 22009KT 5SM -RA BR SCT020 BKN032 OVC080 17/16 A2968 RMK AO2 CB DSNT
  E MOV NE P0008 $<BR>
KPHL 090406Z 23008KT 3SM RA BR FEW018 BKN032 OVC080 17/16 A2967 RMK AO2 CB DSNT
  SE MOV NE TCU DSNT W-NW P0007 $<BR>
KPHL 090401Z 22008KT 3SM RA BR FEW017 BKN025 OVC055 17/16 A2967 RMK AO2 CB DSNT
  S MOV NE TCU DSNT W-NW P0005 $<BR>
KPHL 090354Z 24010KT 3SM +RA BR BKN035 BKN048 OVC055 18/16 A2967 RMK AO2 RAB31
  SLP045 P0008 T01780161 $<BR>
KPHL 090352Z 24011KT 3SM RA BR BKN035 BKN048 OVC055 18/16 A2967 RMK AO2 RAB31
  PRESRR P0006 $<BR>
KPHL 090338Z COR 23005KT 6SM RA BR FEW027 BKN048 OVC060 18/16 A2964 RMK AO2
  RAB31 P0002 $<BR>
KPHL 090331Z 25007KT 8SM -RA BKN055 OVC070 19/15 A2964 RMK AO2 RAB31 P0000 $<BR>
KPHL 090254Z 27009KT 10SM BKN065 BKN100 OVC200 19/14 A2964 RMK AO2 PK WND
  23045/0204 WSHFT 0154 RAB06E18 SLP036 P0000 60000 T01890144 53020 $<BR>
KPHL 090209Z 27025G45KT 10SM -RA FEW055CB SCT070 BKN100 OVC200 21/13 A2966 RMK
  AO2 PK WND 23045/0204 WSHFT 0154 RAB06 CB NW MOV NE P0000 $<BR>
KPHL 090154Z 19014KT 10SM FEW065CB SCT100 OVC200 23/13 A2961 RMK AO2 SLP026 CB W
  MOV NE T02280133 $<BR>
KPHL 090054Z 18013KT 10SM BKN140 OVC250 23/13 A2959 RMK AO2 SLP019 T02280128 $<BR>
KPHL 082354Z 18012KT 10SM BKN150 OVC250 23/13 A2958 RMK AO2 SLP016 T02330128
  10289 20233 51005 $<BR>
KPHL 082254Z 19013G20KT 10SM SCT250 25/13 A2958 RMK AO2 PK WND 20030/2200 SLP016
  T02500128 $<BR>
KPHL 082154Z 20025G31KT 10SM SCT250 27/11 A2957 RMK AO2 PK WND 20031/2154 SLP014
  T02720111<BR>
KPHL 082054Z 19018G26KT 10SM FEW150 SCT250 28/12 A2957 RMK AO2 PK WND 18027/2036
  SLP012 T02780122 56022<BR>
KPHL 081954Z 20016G25KT 10SM FEW065 SCT150 28/12 A2958 RMK AO2 PK WND 20026/1928
  SLP016 T02780117<BR>
KPHL 081854Z 22019G27KT 10SM FEW065 SCT150 BKN250 29/12 A2960 RMK AO2 PK WND
  21027/1854 SLP023 T02890122<BR>
        